25042,IRIDIUM 39,1997,99.38,-1.0,-,86.39,Inactive,0,LEO,USA,USA,Unknown,Unknown,Unknown,1 25042U 97069D   25053.84720521  .00001165  00000+0  30207-3 0  9995,2 25042  86.3861 260.1552 0017053 334.9858  25.0518 14.48923333432408,14.48923333,0.0017053,LEO
25043,IRIDIUM 38,1997,100.14,-1.0,-,86.39,Inactive,0,LEO,USA,USA,Unknown,Unknown,Unknown,1 25043U 97069E   25054.12206883  .00000793  00000+0  25617-3 0  9993,2 25043  86.3918 281.1717 0003839  99.2895 260.8737 14.37929887429829,14.37929887,0.0003839,LEO
25077,IRIDIUM 42,1997,100.27,-1.0,-,86.39,Inactive,0,LEO,PRC,USA,Unknown,Unknown,Unknown,1 25077U 97077A   25054.12803725  .00000700  00000+0  23337-3 0  9992,2 25077  86.3932 287.2034 0002609  97.0622 263.0871 14.36181034424821,14.36181034,0.0002609,LEO
25078,IRIDIUM 44,1997,100.0,-1.0,-,86.39,Inactive,0,LEO,PRC,USA,Unknown,Unknown,Unknown,1 25078U 97077B   25054.11210287  .00000829  00000+0  25672-3 0  9993,2 25078  86.3909 269.4182 0003633  66.8341 293.3241 14.40053667427311,14.40053667,0.0003633,LEO
25104,IRIDIUM 45,1997,94.95,-1.0,-,86.36,Inactive,0,LEO,USA,USA,Unknown,Unknown,Unknown,1 25104U 97082A   25054.14774581  .00020126  00000+0  82151-3 0  9991,2 25104  86.3579 103.0659 0130098  38.7093 322.3382 15.16739418434972,15.16739418,0.0130098,LEO
25105,IRIDIUM 24,1997,99.87,-1.0,-,86.39,Inactive,0,LEO,USA,USA,Unknown,Unknown,Unknown,1 25105U 97082B   25054.16196942  .00000943  00000+0  28198-3 0  9999,2 25105  86.3927 128.6745 0013609  95.2091 265.0662 14.41903656427030,14.41903656,0.0013609,LEO
25262,IRIDIUM 51,1998,94.12,-1.0,-,86.39,Inactive,0,LEO,PRC,USA,Unknown,Unknown,Unknown,1 25262U 98018A   25054.15131432  .00037573  00000+0  10917-2 0  9993,2 25262  86.3865 111.9002 0102003 326.5608  32.9224 15.30188687429751,15.30188687,0.0102003,LEO
25273,IRIDIUM 57,1998,100.3,-1.0,-,86.4,Inactive,0,LEO,USA,USA,Unknown,Unknown,Unknown,1 25273U 98019B   25053.46242742  .00000906  00000+0  30693-3 0  9990,2 25273  86.4011 193.2749 0002121  94.2720 265.8719 14.35745186408325,14.35745186,0.0002121,LEO
